OBJECT_NAME,OBJECT_ID,EPOCH,MEAN_MOTION,ECCENTRICITY,INCLINATION,RA_OF_ASC_NODE,ARG_OF_PERICENTER,MEAN_ANOMALY,EPHEMERIS_TYPE,CLASSIFICATION_TYPE,NORAD_CAT_ID,ELEMENT_SET_NO,REV_AT_EPOCH,BSTAR,MEAN_MOTION_DOT,MEAN_MOTION_DDOT
SWARM A,2013-067B,2026-06-26T02:57:32.130720,15.51115492,.0003133,87.3323,52.9212,97.0929,263.0689,0,U,39452,999,70763,.19463E-3,.11382E-3,0
SWARM C,2013-067C,2026-06-26T02:57:23.096736,15.51114476,.0003126,87.3323,51.5023,97.3229,262.8387,0,U,39453,999,70759,.1954E-3,.11427E-3,0
BRITE-CA1 (TORONTO),2014-033L,2026-06-25T22:31:26.661792,14.72689124,.0077307,97.9748,305.7055,248.4979,110.7974,0,U,40020,999,64350,.12688E-3,.793E-5,0
OCO 2,2014-035A,2026-06-26T03:37:41.596032,14.57118046,.000151,98.2019,118.3077,83.8377,276.2993,0,U,40059,999,63735,.96017E-4,.387E-5,0
BRITE-PL2 (HEWELIUSZ),2014-049B,2026-06-25T21:00:56.825280,14.94625228,.0015409,97.9105,288.9428,81.9829,278.3139,0,U,40119,999,64274,.17359E-3,.1824E-4,0
MMS 1,2015-011A,2026-06-26T04:00:01.998720,0.28359462,.8319649,72.2771,348.7041,167.5857,134.6634,0,U,40482,999,137,0,-.775E-5,0
MMS 2,2015-011B,2026-06-26T04:00:01.998720,0.28359360,.832243,72.2807,348.7032,167.5890,134.6544,0,U,40483,999,137,0,-.776E-5,0
MMS 3,2015-011C,2026-06-26T04:00:01.998720,0.28359416,.8320825,72.2807,348.7150,167.5964,134.6281,0,U,40484,999,137,0,-.775E-5,0
MMS 4,2015-011D,2026-06-26T04:00:01.998720,0.28359378,.83207,72.2769,348.6983,167.6062,134.6212,0,U,40485,999,137,0,-.775E-5,0
ASTROSAT,2015-052A,2026-06-25T05:33:25.272000,14.82519717,.0007747,5.9976,97.4359,153.3235,206.7292,0,U,40930,999,58102,.10501E-3,.1534E-4,0
DAMPE,2015-078A,2026-06-26T04:32:20.978016,15.30807906,.0013443,97.4561,182.7005,49.5823,310.6588,0,U,41173,999,58592,.5906E-4,.1684E-4,0
PISAT,2016-059B,2026-06-25T23:58:34.667040,14.68997282,.0029119,97.8179,177.0732,174.3760,185.7778,0,U,41784,999,52103,.15416E-3,.862E-5,0
HXMT (HUIYAN),2017-034A,2026-06-26T05:04:45.348672,15.18532142,.0031981,43.0130,132.7866,204.5587,155.3740,0,U,42758,999,49903,.22944E-3,.4645E-4,0
FLYING LAPTOP,2017-042G,2026-06-26T04:25:11.042112,15.01200003,.001997,97.4724,332.3729,92.9950,267.3560,0,U,42831,999,48780,.28561E-3,.3622E-4,0
ZHANGHENG 1-01 (CSES-1),2018-015C,2026-06-26T05:14:44.727072,15.20920335,.0017361,97.6871,343.0564,232.7628,127.2023,0,U,43194,999,46601,.37031E-3,.8154E-4,0
SALSAT,2020-068K,2026-06-25T23:24:44.418240,15.29916367,.0007809,97.8851,180.5757,270.5499,89.4845,0,U,46495,999,31670,.30155E-3,.8659E-4,0
IXPE,2021-121A,2026-06-26T04:00:01.998720,15.10325895,.0006843,0.2292,250.1696,215.5306,95.8705,0,U,49954,999,586,.5974E-3,.11027E-3,0
SMILE,2026-109A,2026-06-07T09:11:54.544416,7.54049028,.3310191,69.9787,209.3069,288.5544,45.7342,0,U,69123,999,248,-.36778157E-3,-.41E-6,0
