SWARM A                 
1 39452U 13067B   26177.12328855  .00011382  00000+0  19463-3 0  9997
2 39452  87.3323  52.9212 0003133  97.0929 263.0689 15.51115492707639
SWARM C                 
1 39453U 13067C   26177.12318399  .00011427  00000+0  19540-3 0  9996
2 39453  87.3323  51.5023 0003126  97.3229 262.8387 15.51114476707591
BRITE-CA1 (TORONTO)     
1 40020U 14033L   26176.93850303  .00000793  00000+0  12688-3 0  9996
2 40020  97.9748 305.7055 0077307 248.4979 110.7974 14.72689124643505
OCO 2                   
1 40059U 14035A   26177.15117588  .00000387  00000+0  96017-4 0  9994
2 40059  98.2019 118.3077 0001510  83.8377 276.2993 14.57118046637358
BRITE-PL2 (HEWELIUSZ)   
1 40119U 14049B   26176.87565770  .00001824  00000+0  17359-3 0  9992
2 40119  97.9105 288.9428 0015409  81.9829 278.3139 14.94625228642744
MMS 1                   
1 40482U 15011A   26177.16668980 -.00000775  00000+0  00000+0 0  9991
2 40482  72.2771 348.7041 8319649 167.5857 134.6634  0.28359462  1379
MMS 2                   
1 40483U 15011B   26177.16668980 -.00000776  00000+0  00000+0 0  9993
2 40483  72.2807 348.7032 8322430 167.5890 134.6544  0.28359360  1376
MMS 3                   
1 40484U 15011C   26177.16668980 -.00000775  00000+0  00000+0 0  9993
2 40484  72.2807 348.7150 8320825 167.5964 134.6281  0.28359416  1376
MMS 4                   
1 40485U 15011D   26177.16668980 -.00000775  00000+0  00000+0 0  9994
2 40485  72.2769 348.6983 8320700 167.6062 134.6212  0.28359378  1370
ASTROSAT                
1 40930U 15052A   26176.23154250  .00001534  00000+0  10501-3 0  9995
2 40930   5.9976  97.4359 0007747 153.3235 206.7292 14.82519717581027
DAMPE                   
1 41173U 15078A   26177.18913169  .00001684  00000+0  59060-4 0  9990
2 41173  97.4561 182.7005 0013443  49.5823 310.6588 15.30807906585928
PISAT                   
1 41784U 16059B   26176.99901235  .00000862  00000+0  15416-3 0  9990
2 41784  97.8179 177.0732 0029119 174.3760 185.7778 14.68997282521034
HXMT (HUIYAN)           
1 42758U 17034A   26177.21163598  .00004645  00000+0  22944-3 0  9991
2 42758  43.0130 132.7866 0031981 204.5587 155.3740 15.18532142499037
FLYING LAPTOP           
1 42831U 17042G   26177.18415558  .00003622  00000+0  28561-3 0  9999
2 42831  97.4724 332.3729 0019970  92.9950 267.3560 15.01200003487800
ZHANGHENG 1-01 (CSES-1) 
1 43194U 18015C   26177.21857323  .00008154  00000+0  37031-3 0  9994
2 43194  97.6871 343.0564 0017361 232.7628 127.2023 15.20920335466018
SALSAT                  
1 46495U 20068K   26176.97551410  .00008659  00000+0  30155-3 0  9992
2 46495  97.8851 180.5757 0007809 270.5499  89.4845 15.29916367316705
IXPE                    
1 49954U 21121A   26177.16668980  .00011027  00000+0  59740-3 0  9993
2 49954   0.2292 250.1696 0006843 215.5306  95.8705 15.10325895  5862
SMILE                   
1 69123U 26109A   26158.38327019 -.00000041  00000+0 -36778-3 0  9994
2 69123  69.9787 209.3069 3310191 288.5544  45.7342  7.54049028  2480
